[{"OBJECT_NAME":"FORGESTAR-1","OBJECT_ID":"2025-135U","EPOCH":"2026-03-09T20:36:20.241504","MEAN_MOTION":15.22632363,"ECCENTRICITY":0.00019317,"INCLINATION":97.456,"RA_OF_ASC_NODE":185.1959,"ARG_OF_PERICENTER":126.9955,"MEAN_ANOMALY":233.1458,"EPHEMERIS_TYPE":0,"CLASSIFICATION_TYPE":"U","NORAD_CAT_ID":64546,"ELEMENT_SET_NO":999,"REV_AT_EPOCH":3978,"BSTAR":0.0004351723,"MEAN_MOTION_DOT":0.00010058,"MEAN_MOTION_DDOT":0},{"OBJECT_NAME":"TRANSPORTER-14 OBJECT V","OBJECT_ID":"2025-135V","EPOCH":"2026-03-09T17:31:27.373152","MEAN_MOTION":15.23374465,"ECCENTRICITY":0.00011439,"INCLINATION":97.4496,"RA_OF_ASC_NODE":185.0128,"ARG_OF_PERICENTER":144.8208,"MEAN_ANOMALY":215.3104,"EPHEMERIS_TYPE":0,"CLASSIFICATION_TYPE":"U","NORAD_CAT_ID":64547,"ELEMENT_SET_NO":999,"REV_AT_EPOCH":3977,"BSTAR":0.00049387386,"MEAN_MOTION_DOT":0.0001168,"MEAN_MOTION_DDOT":0}]
