FORGESTAR-1             
1 64546U 25135U   26068.85856760  .00010058  00000+0  43517-3 0  9994
2 64546  97.4560 185.1959 0001932 126.9955 233.1458 15.22632363 39784
TRANSPORTER-14 OBJECT V 
1 64547U 25135V   26068.73017793  .00011680  00000+0  49387-3 0  9990
2 64547  97.4496 185.0128 0001144 144.8208 215.3104 15.23374465 39771
